STARLINK-3620           
1 51775U 22017H   25270.39059877 -.00000132  00000+0  97864-5 0  9996
2 51775  53.2187 352.1997 0001247  90.9191 269.1944 15.08833883197955
STARLINK-3608           
1 51776U 22017J   25270.64083757  .00001033  00000+0  82984-4 0  9995
2 51776  53.2191 351.0741 0001246  92.1495 267.9640 15.08832017197953
STARLINK-3625           
1 51777U 22017K   25270.51298366  .00000172  00000+0  28914-4 0  9992
2 51777  53.2196 351.6209 0001354  97.1673 262.9473 15.08840900197967
STARLINK-3615           
1 51778U 22017L   25270.51662014  .00000516  00000+0  50510-4 0  9997
2 51778  53.2182 341.5092 0001321  91.9729 268.1414 15.08839238197920
STARLINK-3611           
1 51779U 22017M   25270.50931446 -.00001144  00000+0 -53807-4 0  9997
2 51779  53.2195 351.7140 0001368  97.6824 262.4324 15.08838307197936
STARLINK-3617           
1 51780U 22017N   25270.49363259  .00001670  00000+0  12298-3 0  9998
2 51780  53.2190 351.7284 0001352  81.6326 278.4820 15.08836491197788
STARLINK-3580           
1 51781U 22017P   25270.23233546  .00000774  00000+0  66713-4 0  9992
2 51781  53.2190 352.8698 0001728 116.7922 243.3247 15.08849661197742
STARLINK-3616           
1 51782U 22017Q   25271.26185067  .00000149  00000+0  27469-4 0  9992
2 51782  53.2177 358.4422 0001259  84.9384 275.1752 15.08837664197667
STARLINK-3628           
1 51783U 22017R   25269.50835249  .00003236  00000+0  22128-3 0  9997
2 51783  53.2174 356.2088 0001340  94.7826 265.3320 15.08843340197637
STARLINK-3632           
1 51784U 22017S   25270.64726868 -.00000598  00000+0 -19499-4 0  9999
2 51784  53.2200   1.0400 0001600  92.1059 268.0116 15.08850013197661
STARLINK-3646           
1 51785U 22017T   25271.21954681  .00002169  00000+0  15435-3 0  9999
2 51785  53.2188 348.4508 0001032  71.4856 288.6249 15.08839717197896
STARLINK-3638           
1 51786U 22017U   25270.63991606  .00001682  00000+0  12371-3 0  9998
2 51786  53.2195   1.0798 0001030  94.9267 265.1843 15.08840134197662
STARLINK-3619           
1 51787U 22017V   25271.25079298  .00000757  00000+0  65660-4 0  9994
2 51787  53.2200 358.3368 0001477  97.4833 262.6327 15.08841073197755
STARLINK-3641           
1 51788U 22017W   25270.69507834  .00004078  00000+0  27395-3 0  9996
2 51788  53.2182   0.8304 0001248  79.9030 280.2103 15.08870492199313
STARLINK-3639           
1 51789U 22017X   25270.24615348 -.00000024  00000+0  16569-4 0  9998
2 51789  53.2173   2.8511 0001266  92.8375 267.2762 15.08838524197608
STARLINK-3631           
1 51790U 22017Y   25271.22135222 -.00000125  00000+0  10227-4 0  9994
2 51790  53.2195 358.4701 0001338  91.3157 268.7989 15.08841219199443
