[{"OBJECT_NAME":"STARLINK-3620","OBJECT_ID":"2022-017H","EPOCH":"2025-09-27T09:22:27.733728","MEAN_MOTION":15.08833883,"ECCENTRICITY":0.00012473,"INCLINATION":53.2187,"RA_OF_ASC_NODE":352.1997,"ARG_OF_PERICENTER":90.9191,"MEAN_ANOMALY":269.1944,"EPHEMERIS_TYPE":0,"CLASSIFICATION_TYPE":"U","NORAD_CAT_ID":51775,"ELEMENT_SET_NO":999,"REV_AT_EPOCH":19795,"BSTAR":9.786361e-6,"MEAN_MOTION_DOT":-1.32e-6,"MEAN_MOTION_DDOT":0},{"OBJECT_NAME":"STARLINK-3608","OBJECT_ID":"2022-017J","EPOCH":"2025-09-27T15:22:48.366048","MEAN_MOTION":15.08832017,"ECCENTRICITY":0.00012464,"INCLINATION":53.2191,"RA_OF_ASC_NODE":351.0741,"ARG_OF_PERICENTER":92.1495,"MEAN_ANOMALY":267.964,"EPHEMERIS_TYPE":0,"CLASSIFICATION_TYPE":"U","NORAD_CAT_ID":51776,"ELEMENT_SET_NO":999,"REV_AT_EPOCH":19795,"BSTAR":8.2983571e-5,"MEAN_MOTION_DOT":1.033e-5,"MEAN_MOTION_DDOT":0},{"OBJECT_NAME":"STARLINK-3625","OBJECT_ID":"2022-017K","EPOCH":"2025-09-27T12:18:41.788224","MEAN_MOTION":15.088409,"ECCENTRICITY":0.00013549,"INCLINATION":53.2196,"RA_OF_ASC_NODE":351.6209,"ARG_OF_PERICENTER":97.1673,"MEAN_ANOMALY":262.9473,"EPHEMERIS_TYPE":0,"CLASSIFICATION_TYPE":"U","NORAD_CAT_ID":51777,"ELEMENT_SET_NO":999,"REV_AT_EPOCH":19796,"BSTAR":2.8914397e-5,"MEAN_MOTION_DOT":1.72e-6,"MEAN_MOTION_DDOT":0},{"OBJECT_NAME":"STARLINK-3615","OBJECT_ID":"2022-017L","EPOCH":"2025-09-27T12:23:55.980096","MEAN_MOTION":15.08839238,"ECCENTRICITY":0.00013218,"INCLINATION":53.2182,"RA_OF_ASC_NODE":341.5092,"ARG_OF_PERICENTER":91.9729,"MEAN_ANOMALY":268.1414,"EPHEMERIS_TYPE":0,"CLASSIFICATION_TYPE":"U","NORAD_CAT_ID":51778,"ELEMENT_SET_NO":999,"REV_AT_EPOCH":19792,"BSTAR":5.0509687e-5,"MEAN_MOTION_DOT":5.16e-6,"MEAN_MOTION_DDOT":0},{"OBJECT_NAME":"STARLINK-3611","OBJECT_ID":"2022-017M","EPOCH":"2025-09-27T12:13:24.769344","MEAN_MOTION":15.08838307,"ECCENTRICITY":0.00013681,"INCLINATION":53.2195,"RA_OF_ASC_NODE":351.714,"ARG_OF_PERICENTER":97.6824,"MEAN_ANOMALY":262.4324,"EPHEMERIS_TYPE":0,"CLASSIFICATION_TYPE":"U","NORAD_CAT_ID":51779,"ELEMENT_SET_NO":999,"REV_AT_EPOCH":19793,"BSTAR":-5.3807145e-5,"MEAN_MOTION_DOT":-1.144e-5,"MEAN_MOTION_DDOT":0},{"OBJECT_NAME":"STARLINK-3617","OBJECT_ID":"2022-017N","EPOCH":"2025-09-27T11:50:49.855776","MEAN_MOTION":15.08836491,"ECCENTRICITY":0.00013522,"INCLINATION":53.219,"RA_OF_ASC_NODE":351.7284,"ARG_OF_PERICENTER":81.6326,"MEAN_ANOMALY":278.482,"EPHEMERIS_TYPE":0,"CLASSIFICATION_TYPE":"U","NORAD_CAT_ID":51780,"ELEMENT_SET_NO":999,"REV_AT_EPOCH":19778,"BSTAR":0.00012298386,"MEAN_MOTION_DOT":1.67e-5,"MEAN_MOTION_DDOT":0},{"OBJECT_NAME":"STARLINK-3580","OBJECT_ID":"2022-017P","EPOCH":"2025-09-27T05:34:33.783744","MEAN_MOTION":15.08849661,"ECCENTRICITY":0.00017282,"INCLINATION":53.219,"RA_OF_ASC_NODE":352.8698,"ARG_OF_PERICENTER":116.7922,"MEAN_ANOMALY":243.3247,"EPHEMERIS_TYPE":0,"CLASSIFICATION_TYPE":"U","NORAD_CAT_ID":51781,"ELEMENT_SET_NO":999,"REV_AT_EPOCH":19774,"BSTAR":6.6712696e-5,"MEAN_MOTION_DOT":7.74e-6,"MEAN_MOTION_DDOT":0},{"OBJECT_NAME":"STARLINK-3616","OBJECT_ID":"2022-017Q","EPOCH":"2025-09-28T06:17:03.897888","MEAN_MOTION":15.08837664,"ECCENTRICITY":0.00012596,"INCLINATION":53.2177,"RA_OF_ASC_NODE":358.4422,"ARG_OF_PERICENTER":84.9384,"MEAN_ANOMALY":275.1752,"EPHEMERIS_TYPE":0,"CLASSIFICATION_TYPE":"U","NORAD_CAT_ID":51782,"ELEMENT_SET_NO":999,"REV_AT_EPOCH":19766,"BSTAR":2.7469141e-5,"MEAN_MOTION_DOT":1.49e-6,"MEAN_MOTION_DDOT":0},{"OBJECT_NAME":"STARLINK-3628","OBJECT_ID":"2022-017R","EPOCH":"2025-09-26T12:12:01.655136","MEAN_MOTION":15.0884334,"ECCENTRICITY":0.00013407,"INCLINATION":53.2174,"RA_OF_ASC_NODE":356.2088,"ARG_OF_PERICENTER":94.7826,"MEAN_ANOMALY":265.332,"EPHEMERIS_TYPE":0,"CLASSIFICATION_TYPE":"U","NORAD_CAT_ID":51783,"ELEMENT_SET_NO":999,"REV_AT_EPOCH":19763,"BSTAR":0.00022127555,"MEAN_MOTION_DOT":3.236e-5,"MEAN_MOTION_DDOT":0},{"OBJECT_NAME":"STARLINK-3632","OBJECT_ID":"2022-017S","EPOCH":"2025-09-27T15:32:04.013952","MEAN_MOTION":15.08850013,"ECCENTRICITY":0.00016001,"INCLINATION":53.22,"RA_OF_ASC_NODE":1.04,"ARG_OF_PERICENTER":92.1059,"MEAN_ANOMALY":268.0116,"EPHEMERIS_TYPE":0,"CLASSIFICATION_TYPE":"U","NORAD_CAT_ID":51784,"ELEMENT_SET_NO":999,"REV_AT_EPOCH":19766,"BSTAR":-1.9499143e-5,"MEAN_MOTION_DOT":-5.98e-6,"MEAN_MOTION_DDOT":0},{"OBJECT_NAME":"STARLINK-3646","OBJECT_ID":"2022-017T","EPOCH":"2025-09-28T05:16:08.844384","MEAN_MOTION":15.08839717,"ECCENTRICITY":0.00010321,"INCLINATION":53.2188,"RA_OF_ASC_NODE":348.4508,"ARG_OF_PERICENTER":71.4856,"MEAN_ANOMALY":288.6249,"EPHEMERIS_TYPE":0,"CLASSIFICATION_TYPE":"U","NORAD_CAT_ID":51785,"ELEMENT_SET_NO":999,"REV_AT_EPOCH":19789,"BSTAR":0.00015434538,"MEAN_MOTION_DOT":2.169e-5,"MEAN_MOTION_DDOT":0},{"OBJECT_NAME":"STARLINK-3638","OBJECT_ID":"2022-017U","EPOCH":"2025-09-27T15:21:28.747584","MEAN_MOTION":15.08840134,"ECCENTRICITY":0.00010302,"INCLINATION":53.2195,"RA_OF_ASC_NODE":1.0798,"ARG_OF_PERICENTER":94.9267,"MEAN_ANOMALY":265.1843,"EPHEMERIS_TYPE":0,"CLASSIFICATION_TYPE":"U","NORAD_CAT_ID":51786,"ELEMENT_SET_NO":999,"REV_AT_EPOCH":19766,"BSTAR":0.00012370571,"MEAN_MOTION_DOT":1.682e-5,"MEAN_MOTION_DDOT":0},{"OBJECT_NAME":"STARLINK-3619","OBJECT_ID":"2022-017V","EPOCH":"2025-09-28T06:01:08.513472","MEAN_MOTION":15.08841073,"ECCENTRICITY":0.00014779,"INCLINATION":53.22,"RA_OF_ASC_NODE":358.3368,"ARG_OF_PERICENTER":97.4833,"MEAN_ANOMALY":262.6327,"EPHEMERIS_TYPE":0,"CLASSIFICATION_TYPE":"U","NORAD_CAT_ID":51787,"ELEMENT_SET_NO":999,"REV_AT_EPOCH":19775,"BSTAR":6.5659908e-5,"MEAN_MOTION_DOT":7.57e-6,"MEAN_MOTION_DDOT":0},{"OBJECT_NAME":"STARLINK-3641","OBJECT_ID":"2022-017W","EPOCH":"2025-09-27T16:40:54.768576","MEAN_MOTION":15.08870492,"ECCENTRICITY":0.00012483,"INCLINATION":53.2182,"RA_OF_ASC_NODE":0.8304,"ARG_OF_PERICENTER":79.903,"MEAN_ANOMALY":280.2103,"EPHEMERIS_TYPE":0,"CLASSIFICATION_TYPE":"U","NORAD_CAT_ID":51788,"ELEMENT_SET_NO":999,"REV_AT_EPOCH":19931,"BSTAR":0.00027394792,"MEAN_MOTION_DOT":4.078e-5,"MEAN_MOTION_DDOT":0},{"OBJECT_NAME":"STARLINK-3639","OBJECT_ID":"2022-017X","EPOCH":"2025-09-27T05:54:27.660672","MEAN_MOTION":15.08838524,"ECCENTRICITY":0.00012669,"INCLINATION":53.2173,"RA_OF_ASC_NODE":2.8511,"ARG_OF_PERICENTER":92.8375,"MEAN_ANOMALY":267.2762,"EPHEMERIS_TYPE":0,"CLASSIFICATION_TYPE":"U","NORAD_CAT_ID":51789,"ELEMENT_SET_NO":999,"REV_AT_EPOCH":19760,"BSTAR":1.6568747e-5,"MEAN_MOTION_DOT":-2.4e-7,"MEAN_MOTION_DDOT":0},{"OBJECT_NAME":"STARLINK-3631","OBJECT_ID":"2022-017Y","EPOCH":"2025-09-28T05:18:44.831808","MEAN_MOTION":15.08841219,"ECCENTRICITY":0.00013385,"INCLINATION":53.2195,"RA_OF_ASC_NODE":358.4701,"ARG_OF_PERICENTER":91.3157,"MEAN_ANOMALY":268.7989,"EPHEMERIS_TYPE":0,"CLASSIFICATION_TYPE":"U","NORAD_CAT_ID":51790,"ELEMENT_SET_NO":999,"REV_AT_EPOCH":19944,"BSTAR":1.0226999e-5,"MEAN_MOTION_DOT":-1.25e-6,"MEAN_MOTION_DDOT":0}]
